CCSDS_OMM_VERS = 2.0
CREATION_DATE  = 
ORIGINATOR     = 

OBJECT_NAME    = STARLINK-36296
OBJECT_ID      = 2026-063A
CENTER_NAME    = EARTH
REF_FRAME      = TEME
TIME_SYSTEM    = UTC
MEAN_ELEMENT_THEORY = SGP/SGP4

EPOCH          = 2026-04-04T22:00:01.999584
MEAN_MOTION    = 15.97508221
ECCENTRICITY   = .00010967
INCLINATION    = 97.2836
RA_OF_ASC_NODE = 235.8845
ARG_OF_PERICENTER = 33.4323
MEAN_ANOMALY   = 314.9180

EPHEMERIS_TYPE = 0
CLASSIFICATION_TYPE = U
NORAD_CAT_ID   = 68380
ELEMENT_SET_NO = 999
REV_AT_EPOCH   = 267
BSTAR          = .1125406E-2
MEAN_MOTION_DOT = .49511E-2
MEAN_MOTION_DDOT = .10474054E-3

CCSDS_OMM_VERS = 2.0
CREATION_DATE  = 
ORIGINATOR     = 

OBJECT_NAME    = STARLINK-37111
OBJECT_ID      = 2026-063B
CENTER_NAME    = EARTH
REF_FRAME      = TEME
TIME_SYSTEM    = UTC
MEAN_ELEMENT_THEORY = SGP/SGP4

EPOCH          = 2026-04-04T22:00:01.999584
MEAN_MOTION    = 15.90101309
ECCENTRICITY   = .00014364
INCLINATION    = 97.2836
RA_OF_ASC_NODE = 235.8767
ARG_OF_PERICENTER = 70.7797
MEAN_ANOMALY   = 259.7107

EPHEMERIS_TYPE = 0
CLASSIFICATION_TYPE = U
NORAD_CAT_ID   = 68381
ELEMENT_SET_NO = 999
REV_AT_EPOCH   = 267
BSTAR          = -.70742438E-2
MEAN_MOTION_DOT = -.2093137E-1
MEAN_MOTION_DDOT = .11649678E-2

CCSDS_OMM_VERS = 2.0
CREATION_DATE  = 
ORIGINATOR     = 

OBJECT_NAME    = STARLINK-36946
OBJECT_ID      = 2026-063C
CENTER_NAME    = EARTH
REF_FRAME      = TEME
TIME_SYSTEM    = UTC
MEAN_ELEMENT_THEORY = SGP/SGP4

EPOCH          = 2026-04-04T22:00:01.999584
MEAN_MOTION    = 15.90230234
ECCENTRICITY   = .00013985
INCLINATION    = 97.2829
RA_OF_ASC_NODE = 235.8775
ARG_OF_PERICENTER = 73.1567
MEAN_ANOMALY   = 260.7500

EPHEMERIS_TYPE = 0
CLASSIFICATION_TYPE = U
NORAD_CAT_ID   = 68382
ELEMENT_SET_NO = 999
REV_AT_EPOCH   = 267
BSTAR          = -.71083299E-2
MEAN_MOTION_DOT = -.2116618E-1
MEAN_MOTION_DDOT = .1191336E-2

CCSDS_OMM_VERS = 2.0
CREATION_DATE  = 
ORIGINATOR     = 

OBJECT_NAME    = STARLINK-37121
OBJECT_ID      = 2026-063D
CENTER_NAME    = EARTH
REF_FRAME      = TEME
TIME_SYSTEM    = UTC
MEAN_ELEMENT_THEORY = SGP/SGP4

EPOCH          = 2026-04-04T22:00:01.999584
MEAN_MOTION    = 15.90475416
ECCENTRICITY   = .00014236
INCLINATION    = 97.2830
RA_OF_ASC_NODE = 235.8810
ARG_OF_PERICENTER = 68.5579
MEAN_ANOMALY   = 271.9968

EPHEMERIS_TYPE = 0
CLASSIFICATION_TYPE = U
NORAD_CAT_ID   = 68383
ELEMENT_SET_NO = 999
REV_AT_EPOCH   = 267
BSTAR          = -.70322019E-2
MEAN_MOTION_DOT = -.2119945E-1
MEAN_MOTION_DDOT = .11978803E-2

CCSDS_OMM_VERS = 2.0
CREATION_DATE  = 
ORIGINATOR     = 

OBJECT_NAME    = STARLINK-37137
OBJECT_ID      = 2026-063E
CENTER_NAME    = EARTH
REF_FRAME      = TEME
TIME_SYSTEM    = UTC
MEAN_ELEMENT_THEORY = SGP/SGP4

EPOCH          = 2026-04-04T22:00:01.999584
MEAN_MOTION    = 15.90368585
ECCENTRICITY   = .0001408
INCLINATION    = 97.2831
RA_OF_ASC_NODE = 235.8794
ARG_OF_PERICENTER = 69.7518
MEAN_ANOMALY   = 267.2587

EPHEMERIS_TYPE = 0
CLASSIFICATION_TYPE = U
NORAD_CAT_ID   = 68384
ELEMENT_SET_NO = 999
REV_AT_EPOCH   = 267
BSTAR          = -.70441805E-2
MEAN_MOTION_DOT = -.2112232E-1
MEAN_MOTION_DDOT = .11883526E-2

CCSDS_OMM_VERS = 2.0
CREATION_DATE  = 
ORIGINATOR     = 

OBJECT_NAME    = STARLINK-37128
OBJECT_ID      = 2026-063F
CENTER_NAME    = EARTH
REF_FRAME      = TEME
TIME_SYSTEM    = UTC
MEAN_ELEMENT_THEORY = SGP/SGP4

EPOCH          = 2026-04-04T22:00:01.999584
MEAN_MOTION    = 15.90590006
ECCENTRICITY   = .00013795
INCLINATION    = 97.2831
RA_OF_ASC_NODE = 235.8828
ARG_OF_PERICENTER = 73.5750
MEAN_ANOMALY   = 270.5403

EPHEMERIS_TYPE = 0
CLASSIFICATION_TYPE = U
NORAD_CAT_ID   = 68385
ELEMENT_SET_NO = 999
REV_AT_EPOCH   = 262
BSTAR          = -.70698539E-2
MEAN_MOTION_DOT = -.2143384E-1
MEAN_MOTION_DDOT = .12245111E-2

CCSDS_OMM_VERS = 2.0
CREATION_DATE  = 
ORIGINATOR     = 

OBJECT_NAME    = STARLINK-37198
OBJECT_ID      = 2026-063G
CENTER_NAME    = EARTH
REF_FRAME      = TEME
TIME_SYSTEM    = UTC
MEAN_ELEMENT_THEORY = SGP/SGP4

EPOCH          = 2026-04-04T22:00:01.999584
MEAN_MOTION    = 15.90730962
ECCENTRICITY   = .00012844
INCLINATION    = 97.2826
RA_OF_ASC_NODE = 235.8836
ARG_OF_PERICENTER = 67.6805
MEAN_ANOMALY   = 279.4874

EPHEMERIS_TYPE = 0
CLASSIFICATION_TYPE = U
NORAD_CAT_ID   = 68386
ELEMENT_SET_NO = 999
REV_AT_EPOCH   = 267
BSTAR          = -.70158434E-2
MEAN_MOTION_DOT = -.2142209E-1
MEAN_MOTION_DDOT = .12250198E-2

CCSDS_OMM_VERS = 2.0
CREATION_DATE  = 
ORIGINATOR     = 

OBJECT_NAME    = STARLINK-37223
OBJECT_ID      = 2026-063H
CENTER_NAME    = EARTH
REF_FRAME      = TEME
TIME_SYSTEM    = UTC
MEAN_ELEMENT_THEORY = SGP/SGP4

EPOCH          = 2026-04-04T22:00:01.999584
MEAN_MOTION    = 15.90855575
ECCENTRICITY   = .00014072
INCLINATION    = 97.2825
RA_OF_ASC_NODE = 235.8852
ARG_OF_PERICENTER = 70.3181
MEAN_ANOMALY   = 280.2397

EPHEMERIS_TYPE = 0
CLASSIFICATION_TYPE = U
NORAD_CAT_ID   = 68387
ELEMENT_SET_NO = 999
REV_AT_EPOCH   = 267
BSTAR          = -.70445536E-2
MEAN_MOTION_DOT = -.2164376E-1
MEAN_MOTION_DDOT = .12507772E-2

CCSDS_OMM_VERS = 2.0
CREATION_DATE  = 
ORIGINATOR     = 

OBJECT_NAME    = STARLINK-37203
OBJECT_ID      = 2026-063J
CENTER_NAME    = EARTH
REF_FRAME      = TEME
TIME_SYSTEM    = UTC
MEAN_ELEMENT_THEORY = SGP/SGP4

EPOCH          = 2026-04-04T22:00:01.999584
MEAN_MOTION    = 15.90967137
ECCENTRICITY   = .00012291
INCLINATION    = 97.2824
RA_OF_ASC_NODE = 235.8866
ARG_OF_PERICENTER = 75.7851
MEAN_ANOMALY   = 278.2531

EPHEMERIS_TYPE = 0
CLASSIFICATION_TYPE = U
NORAD_CAT_ID   = 68388
ELEMENT_SET_NO = 999
REV_AT_EPOCH   = 267
BSTAR          = -.70281028E-2
MEAN_MOTION_DOT = -.2171445E-1
MEAN_MOTION_DDOT = .12600004E-2

CCSDS_OMM_VERS = 2.0
CREATION_DATE  = 
ORIGINATOR     = 

OBJECT_NAME    = STARLINK-37197
OBJECT_ID      = 2026-063K
CENTER_NAME    = EARTH
REF_FRAME      = TEME
TIME_SYSTEM    = UTC
MEAN_ELEMENT_THEORY = SGP/SGP4

EPOCH          = 2026-04-04T22:00:01.999584
MEAN_MOTION    = 15.91215376
ECCENTRICITY   = .00015338
INCLINATION    = 97.2824
RA_OF_ASC_NODE = 235.8899
ARG_OF_PERICENTER = 58.6997
MEAN_ANOMALY   = 301.7003

EPHEMERIS_TYPE = 0
CLASSIFICATION_TYPE = U
NORAD_CAT_ID   = 68389
ELEMENT_SET_NO = 999
REV_AT_EPOCH   = 267
BSTAR          = -.69296943E-2
MEAN_MOTION_DOT = -.2168333E-1
MEAN_MOTION_DDOT = .12598327E-2

CCSDS_OMM_VERS = 2.0
CREATION_DATE  = 
ORIGINATOR     = 

OBJECT_NAME    = STARLINK-37193
OBJECT_ID      = 2026-063L
CENTER_NAME    = EARTH
REF_FRAME      = TEME
TIME_SYSTEM    = UTC
MEAN_ELEMENT_THEORY = SGP/SGP4

EPOCH          = 2026-04-05T02:10:55.786080
MEAN_MOTION    = 16.06884715
ECCENTRICITY   = .0001196
INCLINATION    = 97.2818
RA_OF_ASC_NODE = 236.1140
ARG_OF_PERICENTER = 324.7874
MEAN_ANOMALY   = 35.3329

EPHEMERIS_TYPE = 0
CLASSIFICATION_TYPE = U
NORAD_CAT_ID   = 68390
ELEMENT_SET_NO = 999
REV_AT_EPOCH   = 179
BSTAR          = .1256E-2
MEAN_MOTION_DOT = .948776E-2
MEAN_MOTION_DDOT = .4954E-3

CCSDS_OMM_VERS = 2.0
CREATION_DATE  = 
ORIGINATOR     = 

OBJECT_NAME    = STARLINK-37216
OBJECT_ID      = 2026-063M
CENTER_NAME    = EARTH
REF_FRAME      = TEME
TIME_SYSTEM    = UTC
MEAN_ELEMENT_THEORY = SGP/SGP4

EPOCH          = 2026-04-04T22:00:01.999584
MEAN_MOTION    = 15.91356827
ECCENTRICITY   = .00013088
INCLINATION    = 97.2822
RA_OF_ASC_NODE = 235.8911
ARG_OF_PERICENTER = 69.1832
MEAN_ANOMALY   = 294.3458

EPHEMERIS_TYPE = 0
CLASSIFICATION_TYPE = U
NORAD_CAT_ID   = 68391
ELEMENT_SET_NO = 999
REV_AT_EPOCH   = 267
BSTAR          = -.69325194E-2
MEAN_MOTION_DOT = -.2184653E-1
MEAN_MOTION_DDOT = .12798042E-2

