STARLINK-36296          
1 68380U 26063A   26094.91668981  .00495110  10474-3  11254-2 0  9995
2 68380  97.2836 235.8845 0001096  33.4323 314.9180 15.97508221  2672
STARLINK-37111          
1 68381U 26063B   26094.91668981 -.02093137  11650-2 -70742-2 0  9996
2 68381  97.2836 235.8767 0001436  70.7797 259.7107 15.90101309  2677
STARLINK-36946          
1 68382U 26063C   26094.91668981 -.02116618  11913-2 -71083-2 0  9998
2 68382  97.2829 235.8775 0001398  73.1567 260.7500 15.90230234  2677
STARLINK-37121          
1 68383U 26063D   26094.91668981 -.02119945  11979-2 -70322-2 0  9992
2 68383  97.2830 235.8810 0001423  68.5579 271.9968 15.90475416  2675
STARLINK-37137          
1 68384U 26063E   26094.91668981 -.02112232  11884-2 -70442-2 0  9993
2 68384  97.2831 235.8794 0001408  69.7518 267.2587 15.90368585  2670
STARLINK-37128          
1 68385U 26063F   26094.91668981 -.02143384  12245-2 -70699-2 0  9992
2 68385  97.2831 235.8828 0001379  73.5750 270.5403 15.90590006  2621
STARLINK-37198          
1 68386U 26063G   26094.91668981 -.02142209  12250-2 -70158-2 0  9994
2 68386  97.2826 235.8836 0001284  67.6805 279.4874 15.90730962  2677
STARLINK-37223          
1 68387U 26063H   26094.91668981 -.02164376  12508-2 -70446-2 0  9990
2 68387  97.2825 235.8852 0001407  70.3181 280.2397 15.90855575  2678
STARLINK-37203          
1 68388U 26063J   26094.91668981 -.02171445  12600-2 -70281-2 0  9996
2 68388  97.2824 235.8866 0001229  75.7851 278.2531 15.90967137  2673
STARLINK-37197          
1 68389U 26063K   26094.91668981 -.02168333  12598-2 -69297-2 0  9990
2 68389  97.2824 235.8899 0001533  58.6997 301.7003 15.91215376  2677
STARLINK-37193          
1 68390U 26063L   26095.09092345  .00948776  49540-3  12560-2 0  9999
2 68390  97.2818 236.1140 0001196 324.7874  35.3329 16.06884715  1790
STARLINK-37216          
1 68391U 26063M   26094.91668981 -.02184653  12798-2 -69325-2 0  9990
2 68391  97.2822 235.8911 0001308  69.1832 294.3458 15.91356827  2676
